[{"OBJECT_NAME":"SAUDISAT 1C (SO-50)","OBJECT_ID":"2002-058C","EPOCH":"2026-04-05T02:55:49.440864","MEAN_MOTION":14.82889051,"ECCENTRICITY":0.0075478,"INCLINATION":64.5552,"RA_OF_ASC_NODE":355.0194,"ARG_OF_PERICENTER":275.8009,"MEAN_ANOMALY":83.4496,"EPHEMERIS_TYPE":0,"CLASSIFICATION_TYPE":"U","NORAD_CAT_ID":27607,"ELEMENT_SET_NO":999,"REV_AT_EPOCH":25362,"BSTAR":0.0002405924,"MEAN_MOTION_DOT":1.899e-5,"MEAN_MOTION_DDOT":0},{"OBJECT_NAME":"SAUDISAT 2","OBJECT_ID":"2004-025F","EPOCH":"2026-04-04T22:37:07.359456","MEAN_MOTION":14.56638634,"ECCENTRICITY":0.00251236,"INCLINATION":98.5511,"RA_OF_ASC_NODE":93.0364,"ARG_OF_PERICENTER":159.1598,"MEAN_ANOMALY":201.0629,"EPHEMERIS_TYPE":0,"CLASSIFICATION_TYPE":"U","NORAD_CAT_ID":28371,"ELEMENT_SET_NO":999,"REV_AT_EPOCH":15508,"BSTAR":0.00010748334,"MEAN_MOTION_DOT":4.32e-6,"MEAN_MOTION_DDOT":0},{"OBJECT_NAME":"SAUDISAT 3","OBJECT_ID":"2007-012B","EPOCH":"2026-04-05T06:59:29.649696","MEAN_MOTION":14.71379379,"ECCENTRICITY":0.00159708,"INCLINATION":98.1391,"RA_OF_ASC_NODE":45.6751,"ARG_OF_PERICENTER":98.5877,"MEAN_ANOMALY":261.714,"EPHEMERIS_TYPE":0,"CLASSIFICATION_TYPE":"U","NORAD_CAT_ID":31118,"ELEMENT_SET_NO":999,"REV_AT_EPOCH":1702,"BSTAR":9.6247226e-5,"MEAN_MOTION_DOT":5.46e-6,"MEAN_MOTION_DDOT":0},{"OBJECT_NAME":"PISAT","OBJECT_ID":"2016-059B","EPOCH":"2026-04-04T23:38:01.664736","MEAN_MOTION":14.68845502,"ECCENTRICITY":0.00305642,"INCLINATION":97.8193,"RA_OF_ASC_NODE":98.5891,"ARG_OF_PERICENTER":79.9645,"MEAN_ANOMALY":280.5007,"EPHEMERIS_TYPE":0,"CLASSIFICATION_TYPE":"U","NORAD_CAT_ID":41784,"ELEMENT_SET_NO":999,"REV_AT_EPOCH":50899,"BSTAR":0.00028165408,"MEAN_MOTION_DOT":1.61e-5,"MEAN_MOTION_DDOT":0},{"OBJECT_NAME":"FLYING LAPTOP","OBJECT_ID":"2017-042G","EPOCH":"2026-04-05T07:36:51.880896","MEAN_MOTION":15.00706187,"ECCENTRICITY":0.00197062,"INCLINATION":97.4366,"RA_OF_ASC_NODE":253.8228,"ARG_OF_PERICENTER":12.786,"MEAN_ANOMALY":347.386,"EPHEMERIS_TYPE":0,"CLASSIFICATION_TYPE":"U","NORAD_CAT_ID":42831,"ELEMENT_SET_NO":999,"REV_AT_EPOCH":47552,"BSTAR":0.00026723356,"MEAN_MOTION_DOT":3.341e-5,"MEAN_MOTION_DDOT":0},{"OBJECT_NAME":"SALSAT","OBJECT_ID":"2020-068K","EPOCH":"2026-04-05T06:04:13.433664","MEAN_MOTION":15.28731219,"ECCENTRICITY":0.00095847,"INCLINATION":97.8868,"RA_OF_ASC_NODE":93.9405,"ARG_OF_PERICENTER":187.7921,"MEAN_ANOMALY":172.317,"EPHEMERIS_TYPE":0,"CLASSIFICATION_TYPE":"U","NORAD_CAT_ID":46495,"ELEMENT_SET_NO":999,"REV_AT_EPOCH":30421,"BSTAR":0.00038420903,"MEAN_MOTION_DOT":0.00010667,"MEAN_MOTION_DDOT":0}]
